{"version": 0.6, "generator": "Overpass API 0.7.62.1 084b4234", "osm3s": {"timestamp_osm_base": "2024-11-19T03:24:28Z", "copyright": "The data included in this document is from www.openstreetmap.org. The data is made available under ODbL."}, "elements": [{"type": "node", "id": 36305919, "lat": 2.3372449, "lon": 42.2849308, "tags": {"alt_name": "Bardera", "name": "Baardheere \u0628\u0627\u0627\u0631\u062f\u0649\u0631\u0622", "name:ar": "\u0628\u0627\u0627\u0631\u062f\u0649\u0631\u0622", "name:ca": "Bardera", "name:da": "Baardheere", "name:de": "Baardheere", "name:en": "Bardera", "name:es": "Bardera", "name:fa": "\u0628\u0627\u0631\u062f\u06cc\u0631\u0627", "name:fr": "Bardera", "name:gl": "Bardera - Baardheere", "name:it": "Bardera", "name:ja": "\u30d0\u30eb\u30c7\u30e9", "name:lt": "Barder\u0117", "name:pl": "Baardheere", "name:pt": "Bardera", "name:ro": "Bardera", "name:ru": "\u0411\u0430\u0440\u0434\u0435\u0440\u0435", "name:so": "Bardhere", "name:sw": "Baardheere", "name:uk": "\u0411\u0430\u0440\u0434\u0435\u0440\u0435", "name:ur": "\u0628\u0627\u0631\u062f\u06cc\u0631\u0627", "name:zh": "\u5df4\u723e\u4ee3\u96f7", "name:zu": "Bardera", "place": "city", "wikidata": "Q797499", "wikipedia": "en:Bardera"}}, {"type": "node", "id": 348404576, "lat": 2.8282984, "lon": 40.98918}, {"type": "node", "id": 348520945, "lat": 2.9854537, "lon": 41.1466985}, {"type": "node", "id": 357060538, "lat": 2.1762583, "lon": 40.9915471}, {"type": "node", "id": 1404226067, "lat": 2.7924838, "lon": 41.0132864, "tags": {"name": "Ceelwaaq", "pcode": "NA-3708-F11-002", "place": "city", "source": "UNDP - 1997"}}, {"type": "node", "id": 1406050160, "lat": 1.2307847, "lon": 40.9932585}, {"type": "node", "id": 1406050169, "lat": 1.26, "lon": 41.4199982}, {"type": "node", "id": 1406050515, "lat": 1.9400001, "lon": 41.6399994}, {"type": "node", "id": 1406050521, "lat": 1.95, "lon": 42.4000015}, {"type": "node", "id": 1406055777, "lat": 2.3, "lon": 41.7799988}, {"type": "node", "id": 1406055785, "lat": 2.3099944, "lon": 40.9903722}, {"type": "node", "id": 1406055883, "lat": 2.5699999, "lon": 42.5099983}, {"type": "node", "id": 1406055911, "lat": 2.5988059, "lon": 42.5150795}, {"type": "node", "id": 1406055984, "lat": 2.74, "lon": 42.5400009}, {"type": "node", "id": 1406055990, "lat": 2.749428, "lon": 42.5417099}, {"type": "node", "id": 1406056045, "lat": 2.9400001, "lon": 41.9700012}, {"type": "node", "id": 1406056056, "lat": 3.0, "lon": 41.7200012}, {"type": "node", "id": 1406056079, "lat": 3.1398136, "lon": 41.3105422}, {"type": "node", "id": 7500591946, "lat": 2.9903063, "lon": 41.7602402}, {"type": "node", "id": 7500591947, "lat": 2.9906529, "lon": 41.7589485}, {"type": "node", "id": 7500591949, "lat": 2.9901968, "lon": 41.7607193}, {"type": "node", "id": 7508197016, "lat": 2.3401378, "lon": 41.7919121}, {"type": "node", "id": 8442465406, "lat": 2.3467242, "lon": 41.7938187}, {"type": "node", "id": 11057218725, "lat": 2.7349166, "lon": 40.9893948}, {"type": "node", "id": 11057218726, "lat": 3.0120657, "lon": 41.1749439}, {"type": "node", "id": 11085449876, "lat": 1.6949165, "lon": 40.9934022}, {"type": "node", "id": 11137843145, "lat": 2.8104187, "lon": 40.9892211}, {"type": "way", "id": 31886935, "nodes": [357060538, 11085449876], "tags": {"admin_level": "2", "border_type": "nation", "boundary": "administrative", "left:country": "\u0627\u0644\u0635\u0648\u0645\u0627\u0644", "name": "Kenya - \u0627\u0644\u0635\u0648\u0645\u0627\u0644", "name:ar": "\u0643\u064a\u0646\u064a\u0627 - \u0627\u0644\u0635\u0648\u0645\u0627\u0644", "name:en": "Kenya - Somalia", "name:fr": "Kenya - Somalie", "right:country": "Kenya", "right:district": "Wajir", "right:province": "North Eastern", "source": "maplibrary.org"}}, {"type": "way", "id": 126924895, "nodes": [1406055785, 357060538], "tags": {"admin_level": "2", "border_type": "nation", "boundary": "administrative", "left:country": "\u0627\u0644\u0635\u0648\u0645\u0627\u0644", "name": "Kenya - \u0627\u0644\u0635\u0648\u0645\u0627\u0644", "name:ar": "\u0643\u064a\u0646\u064a\u0627 - \u0627\u0644\u0635\u0648\u0645\u0627\u0644", "name:en": "Kenya - Somalia", "name:fr": "Kenya - Somalie", "right:country": "Kenya", "right:district": "Mandera", "right:province": "North Eastern", "source": "maplibrary.org"}}, {"type": "way", "id": 126924899, "nodes": [11057218726, 348520945, 348404576, 11137843145], "tags": {"admin_level": "2", "border_type": "nation", "boundary": "administrative", "left:country": "\u0627\u0644\u0635\u0648\u0645\u0627\u0644", "name": "Kenya - \u0627\u0644\u0635\u0648\u0645\u0627\u0644", "name:ar": "\u0643\u064a\u0646\u064a\u0627 - \u0627\u0644\u0635\u0648\u0645\u0627\u0644", "name:en": "Kenya - Somalia", "name:fr": "Kenya - Somalie", "right:country": "Kenya", "right:district": "Mandera", "right:province": "North Eastern", "source": "maplibrary.org"}}, {"type": "way", "id": 126925031, "nodes": [1406055990, 1406056045]}, {"type": "way", "id": 126925046, "nodes": [1406056056, 7500591947, 7500591946, 7500591949, 1406056045]}, {"type": "way", "id": 126925074, "nodes": [1406056079, 1406056056]}, {"type": "way", "id": 126925209, "nodes": [1406050169, 1406050515, 1406050521], "tags": {"admin_level": "4", "boundary": "administrative"}}, {"type": "way", "id": 126925211, "nodes": [1406050521, 1406055883, 1406055911], "tags": {"admin_level": "4", "boundary": "administrative"}}, {"type": "way", "id": 126925238, "nodes": [1406055911, 1406055984, 1406055990], "tags": {"admin_level": "4", "boundary": "administrative"}}, {"type": "way", "id": 126925241, "nodes": [1406056045, 8442465406, 7508197016, 1406055777, 1406055785]}, {"type": "way", "id": 126925258, "nodes": [1406050169, 1406050160], "tags": {"admin_level": "4", "boundary": "administrative"}}, {"type": "way", "id": 1190881925, "nodes": [11057218725, 1406055785], "tags": {"admin_level": "2", "border_type": "nation", "boundary": "administrative", "left:country": "\u0627\u0644\u0635\u0648\u0645\u0627\u0644", "name": "Kenya - \u0627\u0644\u0635\u0648\u0645\u0627\u0644", "name:ar": "\u0643\u064a\u0646\u064a\u0627 - \u0627\u0644\u0635\u0648\u0645\u0627\u0644", "name:en": "Kenya - Somalia", "name:fr": "Kenya - Somalie", "right:country": "Kenya", "right:district": "Mandera", "right:province": "North Eastern", "source": "maplibrary.org"}}, {"type": "way", "id": 1190881926, "nodes": [1406056079, 11057218726], "tags": {"admin_level": "2", "border_type": "nation", "boundary": "administrative", "left:country": "\u0627\u0644\u0635\u0648\u0645\u0627\u0644", "name": "Kenya - \u0627\u0644\u0635\u0648\u0645\u0627\u0644", "name:ar": "\u0643\u064a\u0646\u064a\u0627 - \u0627\u0644\u0635\u0648\u0645\u0627\u0644", "name:en": "Kenya - Somalia", "name:fr": "Kenya - Somalie", "right:country": "Kenya", "right:district": "Mandera", "right:province": "North Eastern", "source": "maplibrary.org"}}, {"type": "way", "id": 1194249741, "nodes": [11085449876, 1406050160], "tags": {"admin_level": "2", "border_type": "nation", "boundary": "administrative", "left:country": "\u0627\u0644\u0635\u0648\u0645\u0627\u0644", "name": "Kenya - \u0627\u0644\u0635\u0648\u0645\u0627\u0644", "name:ar": "\u0643\u064a\u0646\u064a\u0627 - \u0627\u0644\u0635\u0648\u0645\u0627\u0644", "name:en": "Kenya - Somalia", "name:fr": "Kenya - Somalie", "right:country": "Kenya", "right:district": "Wajir", "right:province": "North Eastern", "source": "maplibrary.org"}}, {"type": "way", "id": 1201267309, "nodes": [11137843145, 11057218725], "tags": {"admin_level": "2", "border_type": "nation", "boundary": "administrative", "left:country": "\u0627\u0644\u0635\u0648\u0645\u0627\u0644", "name": "Kenya - \u0627\u0644\u0635\u0648\u0645\u0627\u0644", "name:ar": "\u0643\u064a\u0646\u064a\u0627 - \u0627\u0644\u0635\u0648\u0645\u0627\u0644", "name:en": "Kenya - Somalia", "name:fr": "Kenya - Somalie", "right:country": "Kenya", "right:district": "Mandera", "right:province": "North Eastern", "source": "maplibrary.org"}}, {"type": "relation", "id": 1720072, "members": [{"type": "way", "ref": 31886935, "role": "outer"}, {"type": "way", "ref": 1194249741, "role": "outer"}, {"type": "way", "ref": 126925258, "role": "outer"}, {"type": "way", "ref": 126925209, "role": "outer"}, {"type": "way", "ref": 126925211, "role": "outer"}, {"type": "way", "ref": 126925238, "role": "outer"}, {"type": "way", "ref": 126925031, "role": "outer"}, {"type": "way", "ref": 126925241, "role": "outer"}, {"type": "way", "ref": 126924895, "role": "outer"}, {"type": "node", "ref": 36305919, "role": "admin_centre"}], "tags": {"admin_level": "6", "boundary": "administrative", "name": "Baardheere \u0628\u0627\u0627\u0631\u062f\u0649\u0631\u0622", "name:ar": "\u0628\u0627\u0627\u0631\u062f\u0649\u0631\u0622", "name:de": "Bardera District", "name:fr": "Bardhere", "name:ur": "\u0628\u0627\u0631\u062f\u06cc\u0631\u0627 \u0636\u0644\u0639", "name:zh": "\u5df4\u5c14\u4ee3\u96f7\u533a", "name:zu": "Bardhere District", "type": "boundary", "wikidata": "Q4860129", "wikipedia": "en:Bardhere District"}}, {"type": "relation", "id": 1720103, "members": [{"type": "way", "ref": 1190881925, "role": "outer"}, {"type": "way", "ref": 1201267309, "role": "outer"}, {"type": "way", "ref": 126924899, "role": "outer"}, {"type": "way", "ref": 1190881926, "role": "outer"}, {"type": "way", "ref": 126925074, "role": "outer"}, {"type": "way", "ref": 126925046, "role": "outer"}, {"type": "way", "ref": 126925241, "role": "outer"}, {"type": "node", "ref": 1404226067, "role": "admin_centre"}], "tags": {"admin_level": "6", "boundary": "administrative", "name": "El Waq", "name:en": "El Wak District", "name:fr": "El Wak", "type": "boundary", "wikidata": "Q5352349"}}]}